{
  "links" : {
    "next" : "https://api.nasa.gov/neo/rest/v1/feed?start_date=2004-04-09&end_date=2004-04-09&detailed=true&api_key=t0TVs3DtDT2H8Oy2Zy8m2eVrNsAVKAexjcZXUckd",
    "prev" : "https://api.nasa.gov/neo/rest/v1/feed?start_date=2004-04-07&end_date=2004-04-07&detailed=true&api_key=t0TVs3DtDT2H8Oy2Zy8m2eVrNsAVKAexjcZXUckd",
    "self" : "https://api.nasa.gov/neo/rest/v1/feed?start_date=2004-04-08&end_date=2004-04-08&detailed=true&api_key=t0TVs3DtDT2H8Oy2Zy8m2eVrNsAVKAexjcZXUckd"
  },
  "element_count" : 8,
  "near_earth_objects" : {
    "2004-04-08" : [ {
      "links" : {
        "self" : "https://api.nasa.gov/neo/rest/v1/neo/2393569?api_key=t0TVs3DtDT2H8Oy2Zy8m2eVrNsAVKAexjcZXUckd"
      },
      "neo_reference_id" : "2393569",
      "name" : "393569 (2003 JC13)",
      "nasa_jpl_url" : "http://ssd.jpl.nasa.gov/sbdb.cgi?sstr=2393569",
      "absolute_magnitude_h" : 20.3,
      "estimated_diameter" : {
        "kilometers" : {
          "estimated_diameter_min" : 0.2315021222,
          "estimated_diameter_max" : 0.5176544822
        },
        "meters" : {
          "estimated_diameter_min" : 231.5021222103,
          "estimated_diameter_max" : 517.6544821978
        },
        "miles" : {
          "estimated_diameter_min" : 0.1438487052,
          "estimated_diameter_max" : 0.3216554833
        },
        "feet" : {
          "estimated_diameter_min" : 759.5214226325,
          "estimated_diameter_max" : 1698.3415313737
        }
      },
      "is_potentially_hazardous_asteroid" : false,
      "close_approach_data" : [ {
        "close_approach_date" : "2004-04-08",
        "epoch_date_close_approach" : 1081407600000,
        "relative_velocity" : {
          "kilometers_per_second" : "9.6326874991",
          "kilometers_per_hour" : "34677.6749968697",
          "miles_per_hour" : "21547.3586668049"
        },
        "miss_distance" : {
          "astronomical" : "0.401422275",
          "lunar" : "156.1532592773",
          "kilometers" : "60051916",
          "miles" : "37314532"
        },
        "orbiting_body" : "Earth"
      } ],
      "orbital_data" : {
        "orbit_id" : "82",
        "orbit_determination_date" : "2017-04-06 09:21:58",
        "orbit_uncertainty" : "0",
        "minimum_orbit_intersection" : ".142881",
        "jupiter_tisserand_invariant" : "5.729",
        "epoch_osculation" : "2458000.5",
        "eccentricity" : ".3153282790219117",
        "semi_major_axis" : "1.066380121412242",
        "inclination" : "8.50764251007133",
        "ascending_node_longitude" : "205.8281941470034",
        "orbital_period" : "402.2226175528062",
        "perihelion_distance" : ".7301203129441423",
        "perihelion_argument" : "172.0069286941316",
        "aphelion_distance" : "1.402639929880341",
        "perihelion_time" : "2458130.619937158662",
        "mean_anomaly" : "243.5391762349902",
        "mean_motion" : ".895026744617953",
        "equinox" : "J2000"
      }
    }, {
      "links" : {
        "self" : "https://api.nasa.gov/neo/rest/v1/neo/3177177?api_key=t0TVs3DtDT2H8Oy2Zy8m2eVrNsAVKAexjcZXUckd"
      },
      "neo_reference_id" : "3177177",
      "name" : "(2004 EH1)",
      "nasa_jpl_url" : "http://ssd.jpl.nasa.gov/sbdb.cgi?sstr=3177177",
      "absolute_magnitude_h" : 22.4,
      "estimated_diameter" : {
        "kilometers" : {
          "estimated_diameter_min" : 0.0880146521,
          "estimated_diameter_max" : 0.1968067451
        },
        "meters" : {
          "estimated_diameter_min" : 88.0146520901,
          "estimated_diameter_max" : 196.8067450894
        },
        "miles" : {
          "estimated_diameter_min" : 0.0546897524,
          "estimated_diameter_max" : 0.122290004
        },
        "feet" : {
          "estimated_diameter_min" : 288.7619911632,
          "estimated_diameter_max" : 645.6914415591
        }
      },
      "is_potentially_hazardous_asteroid" : false,
      "close_approach_data" : [ {
        "close_approach_date" : "2004-04-08",
        "epoch_date_close_approach" : 1081407600000,
        "relative_velocity" : {
          "kilometers_per_second" : "9.7714591934",
          "kilometers_per_hour" : "35177.2530963268",
          "miles_per_hour" : "21857.7770697704"
        },
        "miss_distance" : {
          "astronomical" : "0.0577731268",
          "lunar" : "22.4737472534",
          "kilometers" : "8642737",
          "miles" : "5370348"
        },
        "orbiting_body" : "Earth"
      } ],
      "orbital_data" : {
        "orbit_id" : "22",
        "orbit_determination_date" : "2017-04-06 09:13:08",
        "orbit_uncertainty" : "7",
        "minimum_orbit_intersection" : ".0357475",
        "jupiter_tisserand_invariant" : "3.630",
        "epoch_osculation" : "2458000.5",
        "eccentricity" : ".532932061095772",
        "semi_major_axis" : "2.011451237539834",
        "inclination" : "7.527566309186024",
        "ascending_node_longitude" : "356.8263240433372",
        "orbital_period" : "1041.987933854552",
        "perihelion_distance" : ".939484383724089",
        "perihelion_argument" : "231.9153777711934",
        "aphelion_distance" : "3.083418091355579",
        "perihelion_time" : "2458342.343668946197",
        "mean_anomaly" : "241.8952534647977",
        "mean_motion" : ".3454934441210635",
        "equinox" : "J2000"
      }
    }, {
      "links" : {
        "self" : "https://api.nasa.gov/neo/rest/v1/neo/3180148?api_key=t0TVs3DtDT2H8Oy2Zy8m2eVrNsAVKAexjcZXUckd"
      },
      "neo_reference_id" : "3180148",
      "name" : "(2004 HC2)",
      "nasa_jpl_url" : "http://ssd.jpl.nasa.gov/sbdb.cgi?sstr=3180148",
      "absolute_magnitude_h" : 19.5,
      "estimated_diameter" : {
        "kilometers" : {
          "estimated_diameter_min" : 0.3346223745,
          "estimated_diameter_max" : 0.7482383761
        },
        "meters" : {
          "estimated_diameter_min" : 334.6223744549,
          "estimated_diameter_max" : 748.2383760735
        },
        "miles" : {
          "estimated_diameter_min" : 0.2079246394,
          "estimated_diameter_max" : 0.464933628
        },
        "feet" : {
          "estimated_diameter_min" : 1097.8424710066,
          "estimated_diameter_max" : 2454.8503937571
        }
      },
      "is_potentially_hazardous_asteroid" : false,
      "close_approach_data" : [ {
        "close_approach_date" : "2004-04-08",
        "epoch_date_close_approach" : 1081407600000,
        "relative_velocity" : {
          "kilometers_per_second" : "31.6973628874",
          "kilometers_per_hour" : "114110.5063945046",
          "miles_per_hour" : "70903.831042741"
        },
        "miss_distance" : {
          "astronomical" : "0.2791015552",
          "lunar" : "108.5705032349",
          "kilometers" : "41753000",
          "miles" : "25944110"
        },
        "orbiting_body" : "Earth"
      } ],
      "orbital_data" : {
        "orbit_id" : "18",
        "orbit_determination_date" : "2016-10-21 06:47:16",
        "orbit_uncertainty" : "1",
        "minimum_orbit_intersection" : ".0678364",
        "jupiter_tisserand_invariant" : "4.314",
        "epoch_osculation" : "2457600.5",
        "eccentricity" : ".311513740878174",
        "semi_major_axis" : "1.387022207743756",
        "inclination" : "55.02905636612785",
        "ascending_node_longitude" : "190.3480860791396",
        "orbital_period" : "596.6553633456481",
        "perihelion_distance" : ".9549457311283943",
        "perihelion_argument" : "303.1694832792032",
        "aphelion_distance" : "1.819098684359117",
        "perihelion_time" : "2457835.554390475926",
        "mean_anomaly" : "218.1767871877615",
        "mean_motion" : ".6033633854916822",
        "equinox" : "J2000"
      }
    } ]
  }
}